{"fetched_at":"2026-07-16T06:43:03.373Z","source":"https://celestrak.org/NORAD/elements/gp.php?NAME=JILIN&FORMAT=JSON","constellation":"jilin-1-early","records":[{"OBJECT_NAME":"JILIN-1","OBJECT_ID":"2015-057D","EPOCH":"2026-07-15T23:39:06.379200","CLASSIFICATION_TYPE":"U","MEAN_MOTION":14.78202028,"ECCENTRICITY":0.00172988,"INCLINATION":97.652,"RA_OF_ASC_NODE":194.9244,"ARG_OF_PERICENTER":164.3785,"MEAN_ANOMALY":195.7964,"EPHEMERIS_TYPE":0,"NORAD_CAT_ID":40961,"ELEMENT_SET_NO":999,"REV_AT_EPOCH":57986,"BSTAR":0.000056022357,"MEAN_MOTION_DOT":0.00000358,"MEAN_MOTION_DDOT":0},{"OBJECT_NAME":"JILIN-1 03","OBJECT_ID":"2017-002B","EPOCH":"2026-07-15T23:16:26.931360","CLASSIFICATION_TYPE":"U","MEAN_MOTION":15.42243783,"ECCENTRICITY":0.00078567,"INCLINATION":97.1947,"RA_OF_ASC_NODE":203.6621,"ARG_OF_PERICENTER":77.3706,"MEAN_ANOMALY":282.842,"EPHEMERIS_TYPE":0,"NORAD_CAT_ID":41914,"ELEMENT_SET_NO":999,"REV_AT_EPOCH":52629,"BSTAR":0.00019228803,"MEAN_MOTION_DOT":0.00008187,"MEAN_MOTION_DDOT":0},{"OBJECT_NAME":"JILIN-1 04","OBJECT_ID":"2017-074A","EPOCH":"2026-07-15T22:45:50.235840","CLASSIFICATION_TYPE":"U","MEAN_MOTION":15.43144043,"ECCENTRICITY":0.000524,"INCLINATION":97.4883,"RA_OF_ASC_NODE":307.3449,"ARG_OF_PERICENTER":98.1303,"MEAN_ANOMALY":262.0539,"EPHEMERIS_TYPE":0,"NORAD_CAT_ID":43022,"ELEMENT_SET_NO":999,"REV_AT_EPOCH":47870,"BSTAR":0.00019118046,"MEAN_MOTION_DOT":0.00008379,"MEAN_MOTION_DDOT":0},{"OBJECT_NAME":"JILIN-1 05","OBJECT_ID":"2017-074B","EPOCH":"2026-07-15T22:50:17.498688","CLASSIFICATION_TYPE":"U","MEAN_MOTION":15.34292556,"ECCENTRICITY":0.00064897,"INCLINATION":97.4886,"RA_OF_ASC_NODE":303.5053,"ARG_OF_PERICENTER":122.5637,"MEAN_ANOMALY":237.6233,"EPHEMERIS_TYPE":0,"NORAD_CAT_ID":43023,"ELEMENT_SET_NO":999,"REV_AT_EPOCH":47841,"BSTAR":0.00014329579,"MEAN_MOTION_DOT":0.00004677,"MEAN_MOTION_DDOT":0},{"OBJECT_NAME":"JILIN-1 06","OBJECT_ID":"2017-074C","EPOCH":"2026-07-15T22:15:47.990592","CLASSIFICATION_TYPE":"U","MEAN_MOTION":15.34000972,"ECCENTRICITY":0.00081263,"INCLINATION":97.4811,"RA_OF_ASC_NODE":300.4519,"ARG_OF_PERICENTER":131.8896,"MEAN_ANOMALY":228.3041,"EPHEMERIS_TYPE":0,"NORAD_CAT_ID":43024,"ELEMENT_SET_NO":999,"REV_AT_EPOCH":47824,"BSTAR":0.00010532697,"MEAN_MOTION_DOT":0.00003386,"MEAN_MOTION_DDOT":0},{"OBJECT_NAME":"JILIN-1 07","OBJECT_ID":"2018-008E","EPOCH":"2026-07-15T21:46:27.962112","CLASSIFICATION_TYPE":"U","MEAN_MOTION":15.35171324,"ECCENTRICITY":0.00066677,"INCLINATION":97.1763,"RA_OF_ASC_NODE":216.0775,"ARG_OF_PERICENTER":325.052,"MEAN_ANOMALY":35.0285,"EPHEMERIS_TYPE":0,"NORAD_CAT_ID":43159,"ELEMENT_SET_NO":999,"REV_AT_EPOCH":46940,"BSTAR":0.00014470789,"MEAN_MOTION_DOT":0.00004865,"MEAN_MOTION_DDOT":0},{"OBJECT_NAME":"JILIN-1 08","OBJECT_ID":"2018-008F","EPOCH":"2026-07-15T22:16:05.540160","CLASSIFICATION_TYPE":"U","MEAN_MOTION":15.34014983,"ECCENTRICITY":0.00052308,"INCLINATION":97.1801,"RA_OF_ASC_NODE":215.3813,"ARG_OF_PERICENTER":349.8055,"MEAN_ANOMALY":10.3082,"EPHEMERIS_TYPE":0,"NORAD_CAT_ID":43160,"ELEMENT_SET_NO":999,"REV_AT_EPOCH":46935,"BSTAR":0.00010190972,"MEAN_MOTION_DOT":0.00003278,"MEAN_MOTION_DDOT":0},{"OBJECT_NAME":"JILIN-1 09","OBJECT_ID":"2019-005B","EPOCH":"2026-07-15T22:28:19.894368","CLASSIFICATION_TYPE":"U","MEAN_MOTION":15.20744454,"ECCENTRICITY":0.00022818,"INCLINATION":97.4748,"RA_OF_ASC_NODE":291.6583,"ARG_OF_PERICENTER":34.8507,"MEAN_ANOMALY":325.2877,"EPHEMERIS_TYPE":0,"NORAD_CAT_ID":43943,"ELEMENT_SET_NO":999,"REV_AT_EPOCH":41351,"BSTAR":0.00011185339,"MEAN_MOTION_DOT":0.00002392,"MEAN_MOTION_DDOT":0},{"OBJECT_NAME":"JILIN-1 10","OBJECT_ID":"2019-005E","EPOCH":"2026-07-15T21:58:16.434336","CLASSIFICATION_TYPE":"U","MEAN_MOTION":15.26011384,"ECCENTRICITY":0.00086386,"INCLINATION":97.48,"RA_OF_ASC_NODE":295.7266,"ARG_OF_PERICENTER":167.3869,"MEAN_ANOMALY":192.7587,"EPHEMERIS_TYPE":0,"NORAD_CAT_ID":43946,"ELEMENT_SET_NO":999,"REV_AT_EPOCH":41369,"BSTAR":0.00012689722,"MEAN_MOTION_DOT":0.00003192,"MEAN_MOTION_DDOT":0}]}
